start=new Date('2022-01-25T00:00:00.000Z').valueOf();
sats=[{"INCLINATION":"53.0541","MEAN_ANOMALY":"277.2391","ECCENTRICITY":"0.00021800","MEAN_MOTION":"15.06404853","EPOCH":"2022-01-24T20:32:55.219488","MEAN_MOTION_DDOT":"0.0000000000000","COUNTRY_CODE":"US","RA_OF_ASC_NODE":"177.0856","APOAPSIS":"548.708","NORAD_CAT_ID":"47830","MEAN_ELEMENT_THEORY":"SGP4","MEAN_MOTION_DOT":"0.00001332","SEMIMAJOR_AXIS":"6925.334","LAUNCH_DATE":"2021-03-11","OBJECT_TYPE":"PAYLOAD","TLE_LINE1":"1 47830U 21018AV  22024.85619467  .00001332  00000-0  10832-3 0  9996","SITE":"AFETR","DECAY_DATE":null,"OBJECT_NAME":"STARLINK-2419","PERIAPSIS":"545.689","OBJECT_ID":"2021-018AV","PERIOD":"95.592","ARG_OF_PERICENTER":"82.8846","GP_ID":"194571029","RCS_SIZE":"LARGE","ELEMENT_SET_NO":"999","EPHEMERIS_TYPE":"0","CLASSIFICATION_TYPE":"U","TLE_LINE2":"2 47830  53.0541 177.0856 0002180  82.8846 277.2391 15.06404853 49632","FILE":"3282614","TIME_SYSTEM":"UTC","REV_AT_EPOCH":"4963","REF_FRAME":"TEME","BSTAR":"0.00010832000000","CENTER_NAME":"EARTH"},{"RCS_SIZE":"LARGE","GP_ID":"194570284","REV_AT_EPOCH":"5001","REF_FRAME":"TEME","CENTER_NAME":"EARTH","BSTAR":"0.00008756000000","FILE":"3282614","TIME_SYSTEM":"UTC","TLE_LINE2":"2 47831  53.0613 152.9119 0001949  79.6755 280.4454 15.06409653 50015","EPHEMERIS_TYPE":"0","ELEMENT_SET_NO":"999","CLASSIFICATION_TYPE":"U","OBJECT_NAME":"STARLINK-2420","DECAY_DATE":null,"ARG_OF_PERICENTER":"79.6755","PERIOD":"95.592","OBJECT_ID":"2021-018AW","PERIAPSIS":"545.834","MEAN_ELEMENT_THEORY":"SGP4","NORAD_CAT_ID":"47831","OBJECT_TYPE":"PAYLOAD","TLE_LINE1":"1 47831U 21018AW  22024.65759910  .00001023  00000-0  87560-4 0  9993","SITE":"AFETR","SEMIMAJOR_AXIS":"6925.319","LAUNCH_DATE":"2021-03-11","MEAN_MOTION_DOT":"0.00001023","EPOCH":"2022-01-24T15:46:56.562240","MEAN_MOTION":"15.06409653","ECCENTRICITY":"0.00019490","MEAN_ANOMALY":"280.4454","INCLINATION":"53.0613","APOAPSIS":"548.534","COUNTRY_CODE":"US","RA_OF_ASC_NODE":"152.9119","MEAN_MOTION_DDOT":"0.0000000000000"},{"SEMIMAJOR_AXIS":"6925.365","LAUNCH_DATE":"2021-03-11","MEAN_MOTION_DOT":"-0.00000216","SITE":"AFETR","TLE_LINE1":"1 47832U 21018AX  22024.81288126 -.00000216  00000-0  44114-5 0  9991","OBJECT_TYPE":"PAYLOAD","NORAD_CAT_ID":"47832","MEAN_ELEMENT_THEORY":"SGP4","MEAN_MOTION_DDOT":"0.0000000000000","APOAPSIS":"548.732","COUNTRY_CODE":"US","RA_OF_ASC_NODE":"167.2823","ECCENTRICITY":"0.00021680","MEAN_ANOMALY":"284.0211","INCLINATION":"53.0554","EPOCH":"2022-01-24T19:30:32.940864","MEAN_MOTION":"15.06394513","TLE_LINE2":"2 47832  53.0554 167.2823 0002168  76.1019 284.0211 15.06394513 49770","CLASSIFICATION_TYPE":"U","ELEMENT_SET_NO":"999","EPHEMERIS_TYPE":"0","BSTAR":"0.00000441140000","CENTER_NAME":"EARTH","REF_FRAME":"TEME","REV_AT_EPOCH":"4977","FILE":"3282614","TIME_SYSTEM":"UTC","RCS_SIZE":"LARGE","GP_ID":"194570534","OBJECT_ID":"2021-018AX","PERIAPSIS":"545.729","ARG_OF_PERICENTER":"76.1019","PERIOD":"95.592","OBJECT_NAME":"STARLINK-2422","DECAY_DATE":null},{"NORAD_CAT_ID":"47833","MEAN_ELEMENT_THEORY":"SGP4","LAUNCH_DATE":"2021-03-11","SEMIMAJOR_AXIS":"6925.341","MEAN_MOTION_DOT":"0.00001876","TLE_LINE1":"1 47833U 21018AY  22024.83867511  .00001876  00000-0  14482-3 0  9990","SITE":"AFETR","OBJECT_TYPE":"PAYLOAD","ECCENTRICITY":"0.00018910","INCLINATION":"53.0554","MEAN_ANOMALY":"277.6549","EPOCH":"2022-01-24T20:07:41.529504","MEAN_MOTION":"15.06402532","MEAN_MOTION_DDOT":"0.0000000000000","APOAPSIS":"548.515","COUNTRY_CODE":"US","RA_OF_ASC_NODE":"167.1672","RCS_SIZE":"LARGE","GP_ID":"194570786","TLE_LINE2":"2 47833  53.0554 167.1672 0001891  82.4655 277.6549 15.06402532 49830","ELEMENT_SET_NO":"999","EPHEMERIS_TYPE":"0","CLASSIFICATION_TYPE":"U","CENTER_NAME":"EARTH","BSTAR":"0.00014482000000","REV_AT_EPOCH":"4983","REF_FRAME":"TEME","TIME_SYSTEM":"UTC","FILE":"3282614","OBJECT_NAME":"STARLINK-2423","DECAY_DATE":null,"OBJECT_ID":"2021-018AY","PERIAPSIS":"545.896","ARG_OF_PERICENTER":"82.4655","PERIOD":"95.592"},{"DECAY_DATE":null,"OBJECT_NAME":"STARLINK-2424","PERIOD":"95.592","ARG_OF_PERICENTER":"86.6761","PERIAPSIS":"545.934","OBJECT_ID":"2021-018AZ","GP_ID":"194571529","RCS_SIZE":"LARGE","TIME_SYSTEM":"UTC","FILE":"3282614","CENTER_NAME":"EARTH","BSTAR":"0.00001181600000","REF_FRAME":"TEME","REV_AT_EPOCH":"4982","ELEMENT_SET_NO":"999","CLASSIFICATION_TYPE":"U","EPHEMERIS_TYPE":"0","TLE_LINE2":"2 47834  53.0554 167.4102 0001849  86.6761 273.4439 15.06399663 49820","MEAN_MOTION":"15.06399663","EPOCH":"2022-01-24T18:48:04.497696","INCLINATION":"53.0554","MEAN_ANOMALY":"273.4439","ECCENTRICITY":"0.00018490","COUNTRY_CODE":"US","RA_OF_ASC_NODE":"167.4102","APOAPSIS":"548.495","MEAN_MOTION_DDOT":"0.0000000000000","MEAN_ELEMENT_THEORY":"SGP4","NORAD_CAT_ID":"47834","OBJECT_TYPE":"PAYLOAD","TLE_LINE1":"1 47834U 21018AZ  22024.78338539 -.00000106  00000-0  11816-4 0  9993","SITE":"AFETR","MEAN_MOTION_DOT":"-0.00000106","SEMIMAJOR_AXIS":"6925.350","LAUNCH_DATE":"2021-03-11"},{"MEAN_MOTION_DDOT":"0.0000000000000","APOAPSIS":"548.585","COUNTRY_CODE":"US","RA_OF_ASC_NODE":"172.0491","ECCENTRICITY":"0.00019730","MEAN_ANOMALY":"278.9426","INCLINATION":"53.0520","EPOCH":"2022-01-24T20:45:29.297088","MEAN_MOTION":"15.06398499","SEMIMAJOR_AXIS":"6925.353","LAUNCH_DATE":"2021-03-11","MEAN_MOTION_DOT":"0.00001439","SITE":"AFETR","TLE_LINE1":"1 47835U 21018BA  22024.86492242  .00001439  00000-0  11548-3 0  9995","OBJECT_TYPE":"PAYLOAD","NORAD_CAT_ID":"47835","MEAN_ELEMENT_THEORY":"SGP4","OBJECT_ID":"2021-018BA","PERIAPSIS":"545.852","ARG_OF_PERICENTER":"81.1787","PERIOD":"95.592","OBJECT_NAME":"STARLINK-2425","DECAY_DATE":null,"TLE_LINE2":"2 47835  53.0520 172.0491 0001973  81.1787 278.9426 15.06398499 49702","EPHEMERIS_TYPE":"0","ELEMENT_SET_NO":"999","CLASSIFICATION_TYPE":"U","CENTER_NAME":"EARTH","BSTAR":"0.00011548000000","REF_FRAME":"TEME","REV_AT_EPOCH":"4970","TIME_SYSTEM":"UTC","FILE":"3282614","RCS_SIZE":"LARGE","GP_ID":"194569785"},{"ELEMENT_SET_NO":"999","CLASSIFICATION_TYPE":"U","EPHEMERIS_TYPE":"0","TLE_LINE2":"2 47836  53.0561 167.0621 0002294  79.5979 280.5268 15.06403186 49789","FILE":"3282614","TIME_SYSTEM":"UTC","REF_FRAME":"TEME","REV_AT_EPOCH":"4978","BSTAR":"0.00004525600000","CENTER_NAME":"EARTH","GP_ID":"194570035","RCS_SIZE":"LARGE","PERIAPSIS":"545.615","OBJECT_ID":"2021-018BB","PERIOD":"95.592","ARG_OF_PERICENTER":"79.5979","DECAY_DATE":null,"OBJECT_NAME":"STARLINK-2426","MEAN_MOTION_DOT":"0.00000392","LAUNCH_DATE":"2021-03-11","SEMIMAJOR_AXIS":"6925.339","SITE":"AFETR","TLE_LINE1":"1 47836U 21018BB  22024.85984459  .00000392  00000-0  45256-4 0  9992","OBJECT_TYPE":"PAYLOAD","NORAD_CAT_ID":"47836","MEAN_ELEMENT_THEORY":"SGP4","MEAN_MOTION_DDOT":"0.0000000000000","COUNTRY_CODE":"US","RA_OF_ASC_NODE":"167.0621","APOAPSIS":"548.792","INCLINATION":"53.0561","MEAN_ANOMALY":"280.5268","ECCENTRICITY":"0.00022940","MEAN_MOTION":"15.06403186","EPOCH":"2022-01-24T20:38:10.572576"},{"APOAPSIS":"548.429","COUNTRY_CODE":"US","RA_OF_ASC_NODE":"147.2933","MEAN_MOTION_DDOT":"0.0000000000000","EPOCH":"2022-01-24T19:27:53.441280","MEAN_MOTION":"15.06391943","ECCENTRICITY":"0.00017190","MEAN_ANOMALY":"288.4941","INCLINATION":"53.0554","OBJECT_TYPE":"PAYLOAD","TLE_LINE1":"1 47837U 21018BC  22024.81103520 -.00001231  00000-0 -63795-4 0  9994","SITE":"AFETR","LAUNCH_DATE":"2021-03-11","SEMIMAJOR_AXIS":"6925.373","MEAN_MOTION_DOT":"-0.00001231","MEAN_ELEMENT_THEORY":"SGP4","NORAD_CAT_ID":"47837","ARG_OF_PERICENTER":"71.6234","PERIOD":"95.593","OBJECT_ID":"2021-018BC","PERIAPSIS":"546.048","OBJECT_NAME":"STARLINK-2427","DECAY_DATE":null,"CENTER_NAME":"EARTH","BSTAR":"-0.00006379500000","REF_FRAME":"TEME","REV_AT_EPOCH":"5006","TIME_SYSTEM":"UTC","FILE":"3282614","TLE_LINE2":"2 47837  53.0554 147.2933 0001719  71.6234 288.4941 15.06391943 50061","EPHEMERIS_TYPE":"0","ELEMENT_SET_NO":"999","CLASSIFICATION_TYPE":"U","RCS_SIZE":"LARGE","GP_ID":"194571286"},{"TLE_LINE2":"2 47838  53.0540 167.2257 0002088  81.9020 278.2206 15.06394809 49776","CLASSIFICATION_TYPE":"U","ELEMENT_SET_NO":"999","EPHEMERIS_TYPE":"0","REV_AT_EPOCH":"4977","REF_FRAME":"TEME","BSTAR":"0.00001402200000","CENTER_NAME":"EARTH","FILE":"3282614","TIME_SYSTEM":"UTC","RCS_SIZE":"LARGE","GP_ID":"194571030","OBJECT_ID":"2021-018BD","PERIAPSIS":"545.783","ARG_OF_PERICENTER":"81.9020","PERIOD":"95.592","OBJECT_NAME":"STARLINK-2429","DECAY_DATE":null,"SEMIMAJOR_AXIS":"6925.364","LAUNCH_DATE":"2021-03-11","MEAN_MOTION_DOT":"-0.00000073","TLE_LINE1":"1 47838U 21018BD  22024.82393897 -.00000073  00000-0  14022-4 0  9995","OBJECT_TYPE":"PAYLOAD","SITE":"AFETR","NORAD_CAT_ID":"47838","MEAN_ELEMENT_THEORY":"SGP4","MEAN_MOTION_DDOT":"0.0000000000000","APOAPSIS":"548.675","RA_OF_ASC_NODE":"167.2257","COUNTRY_CODE":"US","ECCENTRICITY":"0.00020880","INCLINATION":"53.0540","MEAN_ANOMALY":"278.2206","EPOCH":"2022-01-24T19:46:28.327008","MEAN_MOTION":"15.06394809"},{"OBJECT_ID":"2021-018BE","PERIAPSIS":"545.909","ARG_OF_PERICENTER":"94.9493","PERIOD":"95.593","OBJECT_NAME":"STARLINK-2431","DECAY_DATE":null,"TLE_LINE2":"2 47839  53.0543 137.6848 0001932  94.9493 265.1716 15.06389220 50192","ELEMENT_SET_NO":"999","CLASSIFICATION_TYPE":"U","EPHEMERIS_TYPE":"0","BSTAR":"0.00002816600000","CENTER_NAME":"EARTH","REV_AT_EPOCH":"5019","REF_FRAME":"TEME","FILE":"3282614","TIME_SYSTEM":"UTC","RCS_SIZE":"LARGE","GP_ID":"194570285","MEAN_MOTION_DDOT":"0.0000000000000","APOAPSIS":"548.585","COUNTRY_CODE":"US","RA_OF_ASC_NODE":"137.6848","ECCENTRICITY":"0.00019320","INCLINATION":"53.0543","MEAN_ANOMALY":"265.1716","EPOCH":"2022-01-24T17:16:31.167552","MEAN_MOTION":"15.06389220","LAUNCH_DATE":"2021-03-11","SEMIMAJOR_AXIS":"6925.382","MEAN_MOTION_DOT":"0.00000138","TLE_LINE1":"1 47839U 21018BE  22024.71980518  .00000138  00000-0  28166-4 0  9991","SITE":"AFETR","OBJECT_TYPE":"PAYLOAD","NORAD_CAT_ID":"47839","MEAN_ELEMENT_THEORY":"SGP4"}];
